[
    {
        "Altitude(m)": 706298.4036541982,
        "Argument of Periapsis(deg)": 0.0011390121186627068,
        "Eccentricity": 0.0,
        "Inclination(deg)": 45.0,
        "Latitude(deg)": 40.60908026670696,
        "Longitude(deg)": -106.5349448661009,
        "Mean Anomaly(deg)": -293.3921783352519,
        "RAAN(deg)": 294.9989248058542,
        "Satellite Name": "Constellation 1 1302",
        "Satellite Number": 1302,
        "Semi-Major Axis(m)": 7083131.272910544,
        "Time(s)": 19
    },
    {
        "Altitude(m)": 706303.2559557811,
        "Argument of Periapsis(deg)": 0.0011989601249081123,
        "Eccentricity": 0.0,
        "Inclination(deg)": 45.0,
        "Latitude(deg)": 40.63153860804341,
        "Longitude(deg)": -106.46486574638067,
        "Mean Anomaly(deg)": -293.331477195002,
        "RAAN(deg)": 294.9988682166886,
        "Satellite Name": "Constellation 1 1302",
        "Satellite Number": 1302,
        "Semi-Major Axis(m)": 7083131.272910544,
        "Time(s)": 20
    },
    {
        "Altitude(m)": 706308.0995745795,
        "Argument of Periapsis(deg)": 0.001258908131153518,
        "Eccentricity": 0.0,
        "Inclination(deg)": 45.0,
        "Latitude(deg)": 40.653949189028424,
        "Longitude(deg)": -106.394736987931,
        "Mean Anomaly(deg)": -293.2707760547521,
        "RAAN(deg)": 294.998811627523,
        "Satellite Name": "Constellation 1 1302",
        "Satellite Number": 1302,
        "Semi-Major Axis(m)": 7083131.272910544,
        "Time(s)": 21
    },
    {
        "Altitude(m)": 706312.934481402,
        "Argument of Periapsis(deg)": 0.0013188561373989236,
        "Eccentricity": 0.0,
        "Inclination(deg)": 45.0,
        "Latitude(deg)": 40.67631194066771,
        "Longitude(deg)": -106.32455879210583,
        "Mean Anomaly(deg)": -293.21007491450223,
        "RAAN(deg)": 294.9987550383575,
        "Satellite Name": "Constellation 1 1302",
        "Satellite Number": 1302,
        "Semi-Major Axis(m)": 7083131.272910544,
        "Time(s)": 22
    },
    {
        "Altitude(m)": 706317.7606471184,
        "Argument of Periapsis(deg)": 0.0013788041436443293,
        "Eccentricity": 0.0,
        "Inclination(deg)": 45.0,
        "Latitude(deg)": 40.698626793993185,
        "Longitude(deg)": -106.2543308564586,
        "Mean Anomaly(deg)": -293.14937377425235,
        "RAAN(deg)": 294.9986984491919,
        "Satellite Name": "Constellation 1 1302",
        "Satellite Number": 1302,
        "Semi-Major Axis(m)": 7083131.272910544,
        "Time(s)": 23
    },
    {
        "Altitude(m)": 706322.5780426606,
        "Argument of Periapsis(deg)": 0.001438752149889735,
        "Eccentricity": 0.0,
        "Inclination(deg)": 45.0,
        "Latitude(deg)": 40.72089368006454,
        "Longitude(deg)": -106.18405338332401,
        "Mean Anomaly(deg)": -293.0886726340024,
        "RAAN(deg)": 294.99864186002634,
        "Satellite Name": "Constellation 1 1302",
        "Satellite Number": 1302,
        "Semi-Major Axis(m)": 7083131.272910544,
        "Time(s)": 24
    },
    {
        "Altitude(m)": 706327.3866390133,
        "Argument of Periapsis(deg)": 0.0014987001561351404,
        "Eccentricity": 0.0,
        "Inclination(deg)": 45.0,
        "Latitude(deg)": 40.74311252996931,
        "Longitude(deg)": -106.1137264074322,
        "Mean Anomaly(deg)": -293.0279714937525,
        "RAAN(deg)": 294.99858527086076,
        "Satellite Name": "Constellation 1 1302",
        "Satellite Number": 1302,
        "Semi-Major Axis(m)": 7083131.272910544,
        "Time(s)": 25
    },
    {
        "Altitude(m)": 706332.1864072238,
        "Argument of Periapsis(deg)": 0.001558648162380546,
        "Eccentricity": 0.0,
        "Inclination(deg)": 45.0,
        "Latitude(deg)": 40.76528327482386,
        "Longitude(deg)": -106.04334996400686,
        "Mean Anomaly(deg)": -292.96727035350267,
        "RAAN(deg)": 294.9985286816952,
        "Satellite Name": "Constellation 1 1302",
        "Satellite Number": 1302,
        "Semi-Major Axis(m)": 7083131.272910544,
        "Time(s)": 26
    },
    {
        "Altitude(m)": 706336.9773183916,
        "Argument of Periapsis(deg)": 0.0016185961686259519,
        "Eccentricity": 0.0,
        "Inclination(deg)": 45.0,
        "Latitude(deg)": 40.78740584577408,
        "Longitude(deg)": -105.97292408876606,
        "Mean Anomaly(deg)": -292.90656921325274,
        "RAAN(deg)": 294.99847209252965,
        "Satellite Name": "Constellation 1 1302",
        "Satellite Number": 1302,
        "Semi-Major Axis(m)": 7083131.272910544,
        "Time(s)": 27
    },
    {
        "Altitude(m)": 706341.7593436773,
        "Argument of Periapsis(deg)": 0.0016785441748713573,
        "Eccentricity": 0.0,
        "Inclination(deg)": 45.0,
        "Latitude(deg)": 40.80948017399604,
        "Longitude(deg)": -105.90244881792361,
        "Mean Anomaly(deg)": -292.8458680730028,
        "RAAN(deg)": 294.9984155033641,
        "Satellite Name": "Constellation 1 1302",
        "Satellite Number": 1302,
        "Semi-Major Axis(m)": 7083131.272910544,
        "Time(s)": 28
    },
    {
        "Altitude(m)": 706346.5324543075,
        "Argument of Periapsis(deg)": 0.001738492181116763,
        "Eccentricity": 0.0,
        "Inclination(deg)": 45.0,
        "Latitude(deg)": 40.83150619069675,
        "Longitude(deg)": -105.83192418819,
        "Mean Anomaly(deg)": -292.7851669327529,
        "RAAN(deg)": 294.99835891419855,
        "Satellite Name": "Constellation 1 1302",
        "Satellite Number": 1302,
        "Semi-Major Axis(m)": 7083131.272910544,
        "Time(s)": 29
    },
    {
        "Altitude(m)": 706351.2966215586,
        "Argument of Periapsis(deg)": 0.0017984401873621684,
        "Eccentricity": 0.0,
        "Inclination(deg)": 45.0,
        "Latitude(deg)": 40.853483827115,
        "Longitude(deg)": -105.76135040487101,
        "Mean Anomaly(deg)": -292.724465792503,
        "RAAN(deg)": 294.9983023250329,
        "Satellite Name": "Constellation 1 1302",
        "Satellite Number": 1302,
        "Semi-Major Axis(m)": 7083131.272910544,
        "Time(s)": 30
    },
    {
        "Altitude(m)": 706356.0518167678,
        "Argument of Periapsis(deg)": 0.0018583881936075745,
        "Eccentricity": 0.0,
        "Inclination(deg)": 45.0,
        "Latitude(deg)": 40.87541301452161,
        "Longitude(deg)": -105.69072716948054,
        "Mean Anomaly(deg)": -292.6637646522531,
        "RAAN(deg)": 294.99824573586733,
        "Satellite Name": "Constellation 1 1302",
        "Satellite Number": 1302,
        "Semi-Major Axis(m)": 7083131.272910544,
        "Time(s)": 31
    },
    {
        "Altitude(m)": 706360.7980113304,
        "Argument of Periapsis(deg)": 0.0019183361998529795,
        "Eccentricity": 0.0,
        "Inclination(deg)": 45.0,
        "Latitude(deg)": 40.89729368422094,
        "Longitude(deg)": -105.62005468832326,
        "Mean Anomaly(deg)": -292.60306351200325,
        "RAAN(deg)": 294.9981891467018,
        "Satellite Name": "Constellation 1 1302",
        "Satellite Number": 1302,
        "Semi-Major Axis(m)": 7083131.272910544,
        "Time(s)": 32
    },
    {
        "Altitude(m)": 706365.535176708,
        "Argument of Periapsis(deg)": 0.0019782842060983856,
        "Eccentricity": 0.0,
        "Inclination(deg)": 45.0,
        "Latitude(deg)": 40.919125767550966,
        "Longitude(deg)": -105.54933300010879,
        "Mean Anomaly(deg)": -292.54236237175337,
        "RAAN(deg)": 294.9981325575362,
        "Satellite Name": "Constellation 1 1302",
        "Satellite Number": 1302,
        "Semi-Major Axis(m)": 7083131.272910544,
        "Time(s)": 33
    },
    {
        "Altitude(m)": 706370.2632844137,
        "Argument of Periapsis(deg)": 0.0020382322123437906,
        "Eccentricity": 0.0,
        "Inclination(deg)": 45.0,
        "Latitude(deg)": 40.940909195884345,
        "Longitude(deg)": -105.47856214404895,
        "Mean Anomaly(deg)": -292.4816612315035,
        "RAAN(deg)": 294.9980759683707,
        "Satellite Name": "Constellation 1 1302",
        "Satellite Number": 1302,
        "Semi-Major Axis(m)": 7083131.272910544,
        "Time(s)": 34
    },
    {
        "Altitude(m)": 706374.9823060202,
        "Argument of Periapsis(deg)": 0.002098180218589197,
        "Eccentricity": 0.0,
        "Inclination(deg)": 45.0,
        "Latitude(deg)": 40.96264390062902,
        "Longitude(deg)": -105.40774215985924,
        "Mean Anomaly(deg)": -292.42096009125356,
        "RAAN(deg)": 294.99801937920506,
        "Satellite Name": "Constellation 1 1302",
        "Satellite Number": 1302,
        "Semi-Major Axis(m)": 7083131.272910544,
        "Time(s)": 35
    },
    {
        "Altitude(m)": 706379.6922131643,
        "Argument of Periapsis(deg)": 0.002158128224834602,
        "Eccentricity": 0.0,
        "Inclination(deg)": 45.0,
        "Latitude(deg)": 40.98432981322905,
        "Longitude(deg)": -105.33687308775968,
        "Mean Anomaly(deg)": -292.36025895100363,
        "RAAN(deg)": 294.9979627900395,
        "Satellite Name": "Constellation 1 1302",
        "Satellite Number": 1302,
        "Semi-Major Axis(m)": 7083131.272910544,
        "Time(s)": 36
    },
    {
        "Altitude(m)": 706384.3929775432,
        "Argument of Periapsis(deg)": 0.002218076231080008,
        "Eccentricity": 0.0,
        "Inclination(deg)": 45.0,
        "Latitude(deg)": 41.00596686516538,
        "Longitude(deg)": -105.26595513657317,
        "Mean Anomaly(deg)": -292.29955781075375,
        "RAAN(deg)": 294.99790620087396,
        "Satellite Name": "Constellation 1 1302",
        "Satellite Number": 1302,
        "Semi-Major Axis(m)": 7083131.272910544,
        "Time(s)": 37
    }
]